OBJECT_NAME,OBJECT_ID,EPOCH,MEAN_MOTION,ECCENTRICITY,INCLINATION,RA_OF_ASC_NODE,ARG_OF_PERICENTER,MEAN_ANOMALY,EPHEMERIS_TYPE,CLASSIFICATION_TYPE,NORAD_CAT_ID,ELEMENT_SET_NO,REV_AT_EPOCH,BSTAR,MEAN_MOTION_DOT,MEAN_MOTION_DDOT
SITRO-AIS 7 (FARTUSHNIY),2023-091AE,2026-07-24T07:09:39.076416,15.26244558,.00102247,97.5046,268.2900,345.0543,15.0392,0,U,57194,999,16993,.4751536E-3,.12259E-3,0
AVION KALUGA 650,2023-091AF,2026-07-24T06:40:13.650528,15.20706293,.00095342,97.5070,264.7080,350.8891,9.2170,0,U,57195,999,16966,.27880008E-3,.6067E-4,0
HORS 2,2023-091AG,2026-07-24T06:08:05.308800,15.32745050,.00060843,97.5070,272.8087,318.2840,41.7938,0,U,57196,999,17020,.52370475E-3,.16507E-3,0
A-SEANSAT-PG1,2023-091AH,2026-07-24T07:14:36.897216,15.38143967,.00050622,97.5062,275.7030,308.9327,51.1466,0,U,57197,999,17041,.61447385E-3,.23042E-3,0
SITRO-AIS 10 (BURDAEV),2023-091AK,2026-07-24T07:16:48.102528,15.39915820,.00044158,97.5062,276.7642,298.9468,61.1334,0,U,57199,999,17047,.66374098E-3,.26388E-3,0
SITRO-AIS 9 (SHCHUKIN),2023-091AM,2026-07-24T06:38:46.465152,15.39389732,.00046558,97.5061,276.4370,300.0155,60.0628,0,U,57201,999,17045,.64659456E-3,.25262E-3,0
UTMN 2 (RS27S),2023-091AP,2026-07-24T06:42:10.536768,15.32878239,.00060616,97.5069,273.0320,312.5534,47.5196,0,U,57203,999,17022,.50813295E-3,.1608E-3,0
SITRO-AIS 12 (SMIRENNIY),2023-091AQ,2026-07-24T06:15:04.346208,15.39688398,.00043639,97.5074,276.9108,291.2394,68.8385,0,U,57204,999,17047,.6367586E-3,.2512E-3,0
SITRO-AIS 11 (SHEFFER),2023-091AU,2026-07-24T06:19:13.769184,15.40141214,.00043074,97.5072,277.1844,290.1812,69.8970,0,U,57208,999,17049,.64164624E-3,.25694E-3,0
H2SAT (HEINRICH HERTZ),2023-093A,2026-07-23T14:41:54.112704,1.00272596,.00007434,0.0270,105.6822,232.6551,184.1888,0,U,57213,999,1128,0,.7E-7,0
KUZGTU 1 (RS47S),2023-091AV,2026-07-24T07:21:20.301408,15.30634326,.00091983,97.5045,270.1803,331.8007,28.2734,0,U,57217,999,17005,.49660449E-3,.14658E-3,0
QIANKUN-1,2023-103B,2026-07-21T11:13:32.558016,16.07673823,.00341064,96.1460,244.8830,125.1759,235.2729,0,U,57422,999,17280,.9681363E-5,.79E-4,.166831E-5
FENGYUN 3F,2023-111A,2026-07-24T07:41:52.279872,14.19944701,.00010983,98.6820,274.6342,74.8881,285.2417,0,U,57490,999,15413,.44634708E-4,.51E-6,0
HJ-2F,2023-116A,2026-07-24T07:39:02.669760,15.22797686,.00062744,97.3856,209.9045,271.1395,88.9123,0,U,57519,999,16440,.42186589E-3,.9801E-4,0
XRISM,2023-137A,2026-07-24T03:27:48.122208,15.12727222,.00077576,31.0020,120.1530,335.1147,24.9117,0,U,57800,999,15846,.3093278E-3,.5657E-4,0
METEOR-M2 4,2024-039A,2026-07-24T07:46:30.797184,14.22432947,.00081744,98.7040,164.1597,66.1231,294.0802,0,U,59051,999,12454,.29892452E-4,.23E-6,0
GRBBETA,2024-128C,2026-07-24T02:50:01.670496,15.06857326,.00358341,61.9899,86.6723,142.6054,217.7543,0,U,60237,999,11183,.27272807E-3,.3929E-4,0
TRANSPORTER-11 OBJECT A,2024-149A,2026-07-24T03:49:02.745120,15.33456765,.00049899,97.3719,284.9848,94.7794,265.4018,0,U,60468,999,10772,.33289641E-3,.10693E-3,0
WARATAH SEED-1,2024-149B,2026-07-24T04:04:46.289280,15.36804957,.00033544,97.3676,285.7988,103.2528,256.9091,0,U,60469,999,10779,.48200977E-3,.17277E-3,0
PHISAT 2,2024-149C,2026-07-24T03:56:00.070080,15.31527659,.00034623,97.3744,284.1828,106.4938,253.6684,0,U,60470,999,10765,.26864629E-3,.8104E-4,0
LEMUR-2-TOMATOKECHUP,2024-149D,2026-07-24T05:32:53.462112,15.36735822,.00034446,97.3789,287.3880,106.0558,254.1066,0,U,60471,999,10785,.39145503E-3,.13979E-3,0
CONNECTA IOT-1,2024-149E,2026-07-24T04:49:32.083392,15.23796690,.00033207,97.3742,280.8699,123.8462,236.3092,0,U,60472,999,10743,.18996605E-3,.4503E-4,0
LOPEN,2024-149F,2026-07-24T05:27:41.717088,15.40683808,.00030519,97.3766,288.9090,117.2612,242.8946,0,U,60473,999,10796,.48947586E-3,.19918E-3,0
ROCK,2024-149G,2026-07-24T05:08:42.335232,15.40669782,.00033543,97.3764,288.9093,113.1888,246.9712,0,U,60474,999,10796,.48494543E-3,.19724E-3,0
CONNECTA IOT-3,2024-149H,2026-07-24T03:45:18.248544,15.23810067,.00044723,97.3721,280.5683,121.7636,238.4037,0,U,60475,999,10743,.18978918E-3,.4501E-4,0
QUBE,2024-149J,2026-07-24T05:04:58.990368,15.48877765,.00033297,97.3766,292.4026,110.6132,249.5476,0,U,60476,999,10819,.64632559E-3,.3484E-3,0
WREN-1,2024-149L,2026-07-24T04:22:06.498624,15.42931410,.00057421,97.3754,289.7176,126.2063,233.9716,0,U,60478,999,10802,.65461852E-3,.28781E-3,0
TOMORROW-S1,2024-149M,2026-07-24T05:06:15.695424,15.33197071,.00043351,97.3738,285.5778,112.0681,248.1022,0,U,60479,999,10776,.28939759E-3,.9208E-4,0
FLOCK 4BE-18,2024-149N,2026-07-24T04:32:36.446208,15.42966111,.00054019,97.3718,289.3333,120.6091,239.5690,0,U,60480,999,10801,.52037078E-3,.22868E-3,0
