SITRO-AIS 7 (FARTUSHNIY)
1 57194U 23091AE  26205.29836894  .00012259  00000+0  47515-3 0  9998
2 57194  97.5046 268.2900 0010224 345.0543  15.0392 15.26244558169939
AVION KALUGA 650        
1 57195U 23091AF  26205.27793577  .00006067  00000+0  27880-3 0  9990
2 57195  97.5070 264.7080 0009534 350.8891   9.2170 15.20706293169661
HORS 2                  
1 57196U 23091AG  26205.25561700  .00016507  00000+0  52370-3 0  9992
2 57196  97.5070 272.8087 0006084 318.2840  41.7938 15.32745050170200
A-SEANSAT-PG1           
1 57197U 23091AH  26205.30181594  .00023042  00000+0  61447-3 0  9995
2 57197  97.5062 275.7030 0005062 308.9327  51.1466 15.38143967170412
SITRO-AIS 10 (BURDAEV)  
1 57199U 23091AK  26205.30333452  .00026388  00000+0  66374-3 0  9999
2 57199  97.5062 276.7642 0004415 298.9468  61.1334 15.39915820170476
SITRO-AIS 9 (SHCHUKIN)  
1 57201U 23091AM  26205.27692668  .00025262  00000+0  64659-3 0  9990
2 57201  97.5061 276.4370 0004655 300.0155  60.0628 15.39389732170457
UTMN 2 (RS27S)          
1 57203U 23091AP  26205.27928862  .00016080  00000+0  50813-3 0  9995
2 57203  97.5069 273.0320 0006061 312.5534  47.5196 15.32878239170220
SITRO-AIS 12 (SMIRENNIY)
1 57204U 23091AQ  26205.26046697  .00025120  00000+0  63676-3 0  9998
2 57204  97.5074 276.9108 0004363 291.2394  68.8385 15.39688398170478
SITRO-AIS 11 (SHEFFER)  
1 57208U 23091AU  26205.26335381  .00025694  00000+0  64165-3 0  9993
2 57208  97.5072 277.1844 0004307 290.1812  69.8970 15.40141214170497
H2SAT (HEINRICH HERTZ)  
1 57213U 23093A   26204.61243186  .00000007  00000+0  00000+0 0  9995
2 57213   0.0270 105.6822 0000743 232.6551 184.1888  1.00272596 11283
KUZGTU 1 (RS47S)        
1 57217U 23091AV  26205.30648497  .00014658  00000+0  49660-3 0  9994
2 57217  97.5045 270.1803 0009198 331.8007  28.2734 15.30634326170056
QIANKUN-1               
1 57422U 23103B   26202.46773794  .00007900  16683-5  96814-5 0  9996
2 57422  96.1460 244.8830 0034106 125.1759 235.2729 16.07673823172802
FENGYUN 3F              
1 57490U 23111A   26205.32074398  .00000051  00000+0  44635-4 0  9995
2 57490  98.6820 274.6342 0001098  74.8881 285.2417 14.19944701154135
HJ-2F                   
1 57519U 23116A   26205.31878090  .00009801  00000+0  42187-3 0  9993
2 57519  97.3856 209.9045 0006274 271.1395  88.9123 15.22797686164402
XRISM                   
1 57800U 23137A   26205.14430697  .00005657  00000+0  30933-3 0  9998
2 57800  31.0020 120.1530 0007757 335.1147  24.9117 15.12727222158469
METEOR-M2 4             
1 59051U 24039A   26205.32396756  .00000023  00000+0  29892-4 0  9992
2 59051  98.7040 164.1597 0008174  66.1231 294.0802 14.22432947124541
GRBBETA                 
1 60237U 24128C   26205.11807489  .00003929  00000+0  27273-3 0  9994
2 60237  61.9899  86.6723 0035834 142.6054 217.7543 15.06857326111835
TRANSPORTER-11 OBJECT A 
1 60468U 24149A   26205.15905955  .00010693  00000+0  33290-3 0  9996
2 60468  97.3719 284.9848 0004989  94.7794 265.4018 15.33456765107723
WARATAH SEED-1          
1 60469U 24149B   26205.16998020  .00017277  00000+0  48201-3 0  9996
2 60469  97.3676 285.7988 0003354 103.2528 256.9091 15.36804957107792
PHISAT 2                
1 60470U 24149C   26205.16388970  .00008104  00000+0  26865-3 0  9996
2 60470  97.3744 284.1828 0003462 106.4938 253.6684 15.31527659107659
LEMUR-2-TOMATOKECHUP    
1 60471U 24149D   26205.23117433  .00013979  00000+0  39146-3 0  9991
2 60471  97.3789 287.3880 0003444 106.0558 254.1066 15.36735822107856
CONNECTA IOT-1          
1 60472U 24149E   26205.20106578  .00004503  00000+0  18997-3 0  9991
2 60472  97.3742 280.8699 0003320 123.8462 236.3092 15.23796690107437
LOPEN                   
1 60473U 24149F   26205.22756617  .00019918  00000+0  48948-3 0  9994
2 60473  97.3766 288.9090 0003051 117.2612 242.8946 15.40683808107966
ROCK                    
1 60474U 24149G   26205.21437888  .00019724  00000+0  48495-3 0  9992
2 60474  97.3764 288.9093 0003354 113.1888 246.9712 15.40669782107965
CONNECTA IOT-3          
1 60475U 24149H   26205.15646121  .00004501  00000+0  18979-3 0  9999
2 60475  97.3721 280.5683 0004472 121.7636 238.4037 15.23810067107433
QUBE                    
1 60476U 24149J   26205.21179387  .00034840  00000+0  64633-3 0  9999
2 60476  97.3766 292.4026 0003329 110.6132 249.5476 15.48877765108193
WREN-1                  
1 60478U 24149L   26205.18201966  .00028781  00000+0  65462-3 0  9994
2 60478  97.3754 289.7176 0005742 126.2063 233.9716 15.42931410108022
TOMORROW-S1             
1 60479U 24149M   26205.21268166  .00009208  00000+0  28940-3 0  9997
2 60479  97.3738 285.5778 0004335 112.0681 248.1022 15.33197071107768
FLOCK 4BE-18            
1 60480U 24149N   26205.18931072  .00022868  00000+0  52037-3 0  9999
2 60480  97.3718 289.3333 0005401 120.6091 239.5690 15.42966111108015
